[
  {
    "id": 215,
    "name": "Syria",
    "iso3": "SYR",
    "iso2": "SY",
    "numeric_code": "760",
    "phone_code": "963"
  },
  {
    "id": 1,
    "name": "Afghanistan",
    "iso3": "AFG",
    "iso2": "AF",
    "numeric_code": "004",
    "phone_code": "93"
  },
  {
    "id": 2,
    "name": "Aland Islands",
    "iso3": "ALA",
    "iso2": "AX",
    "numeric_code": "248",
    "phone_code": "358-18"
  },
  {
    "id": 3,
    "name": "Albania",
    "iso3": "ALB",
    "iso2": "AL",
    "numeric_code": "008",
    "phone_code": "355"
  },
  {
    "id": 4,
    "name": "Algeria",
    "iso3": "DZA",
    "iso2": "DZ",
    "numeric_code": "012",
    "phone_code": "213"
  },
  {
    "id": 5,
    "name": "American Samoa",
    "iso3": "ASM",
    "iso2": "AS",
    "numeric_code": "016",
    "phone_code": "1-684"
  },
  {
    "id": 6,
    "name": "Andorra",
    "iso3": "AND",
    "iso2": "AD",
    "numeric_code": "020",
    "phone_code": "376"
  },
  {
    "id": 7,
    "name": "Angola",
    "iso3": "AGO",
    "iso2": "AO",
    "numeric_code": "024",
    "phone_code": "244"
  },
  {
    "id": 8,
    "name": "Anguilla",
    "iso3": "AIA",
    "iso2": "AI",
    "numeric_code": "660",
    "phone_code": "1-264"
  },
  {
    "id": 9,
    "name": "Antarctica",
    "iso3": "ATA",
    "iso2": "AQ",
    "numeric_code": "010",
    "phone_code": "672"
  },
  {
    "id": 10,
    "name": "Antigua And Barbuda",
    "iso3": "ATG",
    "iso2": "AG",
    "numeric_code": "028",
    "phone_code": "1-268"
  },
  {
    "id": 11,
    "name": "Argentina",
    "iso3": "ARG",
    "iso2": "AR",
    "numeric_code": "032",
    "phone_code": "54"
  },
  {
    "id": 12,
    "name": "Armenia",
    "iso3": "ARM",
    "iso2": "AM",
    "numeric_code": "051",
    "phone_code": "374"
  },
  {
    "id": 13,
    "name": "Aruba",
    "iso3": "ABW",
    "iso2": "AW",
    "numeric_code": "533",
    "phone_code": "297"
  },
  {
    "id": 14,
    "name": "Australia",
    "iso3": "AUS",
    "iso2": "AU",
    "numeric_code": "036",
    "phone_code": "61"
  },
  {
    "id": 15,
    "name": "Austria",
    "iso3": "AUT",
    "iso2": "AT",
    "numeric_code": "040",
    "phone_code": "43"
  },
  {
    "id": 16,
    "name": "Azerbaijan",
    "iso3": "AZE",
    "iso2": "AZ",
    "numeric_code": "031",
    "phone_code": "994"
  },
  {
    "id": 18,
    "name": "Bahrain",
    "iso3": "BHR",
    "iso2": "BH",
    "numeric_code": "048",
    "phone_code": "973"
  },
  {
    "id": 19,
    "name": "Bangladesh",
    "iso3": "BGD",
    "iso2": "BD",
    "numeric_code": "050",
    "phone_code": "880"
  },
  {
    "id": 20,
    "name": "Barbados",
    "iso3": "BRB",
    "iso2": "BB",
    "numeric_code": "052",
    "phone_code": "1-246"
  },
  {
    "id": 21,
    "name": "Belarus",
    "iso3": "BLR",
    "iso2": "BY",
    "numeric_code": "112",
    "phone_code": "375"
  },
  {
    "id": 22,
    "name": "Belgium",
    "iso3": "BEL",
    "iso2": "BE",
    "numeric_code": "056",
    "phone_code": "32"
  },
  {
    "id": 23,
    "name": "Belize",
    "iso3": "BLZ",
    "iso2": "BZ",
    "numeric_code": "084",
    "phone_code": "501"
  },
  {
    "id": 24,
    "name": "Benin",
    "iso3": "BEN",
    "iso2": "BJ",
    "numeric_code": "204",
    "phone_code": "229"
  },
  {
    "id": 25,
    "name": "Bermuda",
    "iso3": "BMU",
    "iso2": "BM",
    "numeric_code": "060",
    "phone_code": "1-441"
  },
  {
    "id": 26,
    "name": "Bhutan",
    "iso3": "BTN",
    "iso2": "BT",
    "numeric_code": "064",
    "phone_code": "975"
  },
  {
    "id": 27,
    "name": "Bolivia",
    "iso3": "BOL",
    "iso2": "BO",
    "numeric_code": "068",
    "phone_code": "591"
  },
  {
    "id": 155,
    "name": "Bonaire, Sint Eustatius and Saba",
    "iso3": "BES",
    "iso2": "BQ",
    "numeric_code": "535",
    "phone_code": "599"
  },
  {
    "id": 28,
    "name": "Bosnia and Herzegovina",
    "iso3": "BIH",
    "iso2": "BA",
    "numeric_code": "070",
    "phone_code": "387"
  },
  {
    "id": 29,
    "name": "Botswana",
    "iso3": "BWA",
    "iso2": "BW",
    "numeric_code": "072",
    "phone_code": "267"
  },
  {
    "id": 30,
    "name": "Bouvet Island",
    "iso3": "BVT",
    "iso2": "BV",
    "numeric_code": "074",
    "phone_code": "0055"
  },
  {
    "id": 31,
    "name": "Brazil",
    "iso3": "BRA",
    "iso2": "BR",
    "numeric_code": "076",
    "phone_code": "55"
  },
  {
    "id": 32,
    "name": "British Indian Ocean Territory",
    "iso3": "IOT",
    "iso2": "IO",
    "numeric_code": "086",
    "phone_code": "246"
  },
  {
    "id": 33,
    "name": "Brunei",
    "iso3": "BRN",
    "iso2": "BN",
    "numeric_code": "096",
    "phone_code": "673"
  },
  {
    "id": 34,
    "name": "Bulgaria",
    "iso3": "BGR",
    "iso2": "BG",
    "numeric_code": "100",
    "phone_code": "359"
  },
  {
    "id": 35,
    "name": "Burkina Faso",
    "iso3": "BFA",
    "iso2": "BF",
    "numeric_code": "854",
    "phone_code": "226"
  },
  {
    "id": 36,
    "name": "Burundi",
    "iso3": "BDI",
    "iso2": "BI",
    "numeric_code": "108",
    "phone_code": "257"
  },
  {
    "id": 37,
    "name": "Cambodia",
    "iso3": "KHM",
    "iso2": "KH",
    "numeric_code": "116",
    "phone_code": "855"
  },
  {
    "id": 38,
    "name": "Cameroon",
    "iso3": "CMR",
    "iso2": "CM",
    "numeric_code": "120",
    "phone_code": "237"
  },
  {
    "id": 39,
    "name": "Canada",
    "iso3": "CAN",
    "iso2": "CA",
    "numeric_code": "124",
    "phone_code": "1"
  },
  {
    "id": 40,
    "name": "Cape Verde",
    "iso3": "CPV",
    "iso2": "CV",
    "numeric_code": "132",
    "phone_code": "238"
  },
  {
    "id": 41,
    "name": "Cayman Islands",
    "iso3": "CYM",
    "iso2": "KY",
    "numeric_code": "136",
    "phone_code": "1-345"
  },
  {
    "id": 42,
    "name": "Central African Republic",
    "iso3": "CAF",
    "iso2": "CF",
    "numeric_code": "140",
    "phone_code": "236"
  },
  {
    "id": 43,
    "name": "Chad",
    "iso3": "TCD",
    "iso2": "TD",
    "numeric_code": "148",
    "phone_code": "235"
  },
  {
    "id": 44,
    "name": "Chile",
    "iso3": "CHL",
    "iso2": "CL",
    "numeric_code": "152",
    "phone_code": "56"
  },
  {
    "id": 45,
    "name": "China",
    "iso3": "CHN",
    "iso2": "CN",
    "numeric_code": "156",
    "phone_code": "86"
  },
  {
    "id": 46,
    "name": "Christmas Island",
    "iso3": "CXR",
    "iso2": "CX",
    "numeric_code": "162",
    "phone_code": "61"
  },
  {
    "id": 47,
    "name": "Cocos (Keeling) Islands",
    "iso3": "CCK",
    "iso2": "CC",
    "numeric_code": "166",
    "phone_code": "61"
  },
  {
    "id": 48,
    "name": "Colombia",
    "iso3": "COL",
    "iso2": "CO",
    "numeric_code": "170",
    "phone_code": "57"
  },
  {
    "id": 49,
    "name": "Comoros",
    "iso3": "COM",
    "iso2": "KM",
    "numeric_code": "174",
    "phone_code": "269"
  },
  {
    "id": 50,
    "name": "Congo",
    "iso3": "COG",
    "iso2": "CG",
    "numeric_code": "178",
    "phone_code": "242"
  },
  {
    "id": 52,
    "name": "Cook Islands",
    "iso3": "COK",
    "iso2": "CK",
    "numeric_code": "184",
    "phone_code": "682"
  },
  {
    "id": 53,
    "name": "Costa Rica",
    "iso3": "CRI",
    "iso2": "CR",
    "numeric_code": "188",
    "phone_code": "506"
  },
  {
    "id": 54,
    "name": "Cote D'Ivoire (Ivory Coast)",
    "iso3": "CIV",
    "iso2": "CI",
    "numeric_code": "384",
    "phone_code": "225"
  },
  {
    "id": 55,
    "name": "Croatia",
    "iso3": "HRV",
    "iso2": "HR",
    "numeric_code": "191",
    "phone_code": "385"
  },
  {
    "id": 56,
    "name": "Cuba",
    "iso3": "CUB",
    "iso2": "CU",
    "numeric_code": "192",
    "phone_code": "53"
  },
  {
    "id": 249,
    "name": "Cura√ßao",
    "iso3": "CUW",
    "iso2": "CW",
    "numeric_code": "531",
    "phone_code": "599"
  },
  {
    "id": 57,
    "name": "Cyprus",
    "iso3": "CYP",
    "iso2": "CY",
    "numeric_code": "196",
    "phone_code": "357"
  },
  {
    "id": 58,
    "name": "Czech Republic",
    "iso3": "CZE",
    "iso2": "CZ",
    "numeric_code": "203",
    "phone_code": "420"
  },
  {
    "id": 51,
    "name": "Democratic Republic of the Congo",
    "iso3": "COD",
    "iso2": "CD",
    "numeric_code": "180",
    "phone_code": "243"
  },
  {
    "id": 59,
    "name": "Denmark",
    "iso3": "DNK",
    "iso2": "DK",
    "numeric_code": "208",
    "phone_code": "45"
  },
  {
    "id": 60,
    "name": "Djibouti",
    "iso3": "DJI",
    "iso2": "DJ",
    "numeric_code": "262",
    "phone_code": "253"
  },
  {
    "id": 61,
    "name": "Dominica",
    "iso3": "DMA",
    "iso2": "DM",
    "numeric_code": "212",
    "phone_code": "1-767"
  },
  {
    "id": 62,
    "name": "Dominican Republic",
    "iso3": "DOM",
    "iso2": "DO",
    "numeric_code": "214",
    "phone_code": "1-809"
  },
    {
    "id": 62,
    "name": "Dominican Republic",
    "iso3": "DOM",
    "iso2": "DO",
    "numeric_code": "214",
    "phone_code": "1-829"
  },
  {
    "id": 63,
    "name": "East Timor",
    "iso3": "TLS",
    "iso2": "TL",
    "numeric_code": "626",
    "phone_code": "670"
  },
  {
    "id": 64,
    "name": "Ecuador",
    "iso3": "ECU",
    "iso2": "EC",
    "numeric_code": "218",
    "phone_code": "593"
  },
  {
    "id": 65,
    "name": "Egypt",
    "iso3": "EGY",
    "iso2": "EG",
    "numeric_code": "818",
    "phone_code": "20"
  },
  {
    "id": 66,
    "name": "El Salvador",
    "iso3": "SLV",
    "iso2": "SV",
    "numeric_code": "222",
    "phone_code": "503"
  },
  {
    "id": 67,
    "name": "Equatorial Guinea",
    "iso3": "GNQ",
    "iso2": "GQ",
    "numeric_code": "226",
    "phone_code": "240"
  },
  {
    "id": 68,
    "name": "Eritrea",
    "iso3": "ERI",
    "iso2": "ER",
    "numeric_code": "232",
    "phone_code": "291"
  },
  {
    "id": 69,
    "name": "Estonia",
    "iso3": "EST",
    "iso2": "EE",
    "numeric_code": "233",
    "phone_code": "372"
  },
  {
    "id": 70,
    "name": "Ethiopia",
    "iso3": "ETH",
    "iso2": "ET",
    "numeric_code": "231",
    "phone_code": "251"
  },
  {
    "id": 71,
    "name": "Falkland Islands",
    "iso3": "FLK",
    "iso2": "FK",
    "numeric_code": "238",
    "phone_code": "500"
  },
  {
    "id": 72,
    "name": "Faroe Islands",
    "iso3": "FRO",
    "iso2": "FO",
    "numeric_code": "234",
    "phone_code": "298"
  },
  {
    "id": 73,
    "name": "Fiji Islands",
    "iso3": "FJI",
    "iso2": "FJ",
    "numeric_code": "242",
    "phone_code": "679"
  },
  {
    "id": 74,
    "name": "Finland",
    "iso3": "FIN",
    "iso2": "FI",
    "numeric_code": "246",
    "phone_code": "358"
  },
  {
    "id": 75,
    "name": "France",
    "iso3": "FRA",
    "iso2": "FR",
    "numeric_code": "250",
    "phone_code": "33"
  },
  {
    "id": 76,
    "name": "French Guiana",
    "iso3": "GUF",
    "iso2": "GF",
    "numeric_code": "254",
    "phone_code": "594"
  },
  {
    "id": 77,
    "name": "French Polynesia",
    "iso3": "PYF",
    "iso2": "PF",
    "numeric_code": "258",
    "phone_code": "689"
  },
  {
    "id": 78,
    "name": "French Southern Territories",
    "iso3": "ATF",
    "iso2": "TF",
    "numeric_code": "260",
    "phone_code": "262"
  },
  {
    "id": 79,
    "name": "Gabon",
    "iso3": "GAB",
    "iso2": "GA",
    "numeric_code": "266",
    "phone_code": "241"
  },
  {
    "id": 80,
    "name": "Gambia The",
    "iso3": "GMB",
    "iso2": "GM",
    "numeric_code": "270",
    "phone_code": "220"
  },
  {
    "id": 81,
    "name": "Georgia",
    "iso3": "GEO",
    "iso2": "GE",
    "numeric_code": "268",
    "phone_code": "995"
  },
  {
    "id": 82,
    "name": "Germany",
    "iso3": "DEU",
    "iso2": "DE",
    "numeric_code": "276",
    "phone_code": "49"
  },
  {
    "id": 83,
    "name": "Ghana",
    "iso3": "GHA",
    "iso2": "GH",
    "numeric_code": "288",
    "phone_code": "233"
  },
  {
    "id": 84,
    "name": "Gibraltar",
    "iso3": "GIB",
    "iso2": "GI",
    "numeric_code": "292",
    "phone_code": "350"
  },
  {
    "id": 85,
    "name": "Greece",
    "iso3": "GRC",
    "iso2": "GR",
    "numeric_code": "300",
    "phone_code": "30"
  },
  {
    "id": 86,
    "name": "Greenland",
    "iso3": "GRL",
    "iso2": "GL",
    "numeric_code": "304",
    "phone_code": "299"
  },
  {
    "id": 87,
    "name": "Grenada",
    "iso3": "GRD",
    "iso2": "GD",
    "numeric_code": "308",
    "phone_code": "1-473"
  },
  {
    "id": 88,
    "name": "Guadeloupe",
    "iso3": "GLP",
    "iso2": "GP",
    "numeric_code": "312",
    "phone_code": "590"
  },
  {
    "id": 89,
    "name": "Guam",
    "iso3": "GUM",
    "iso2": "GU",
    "numeric_code": "316",
    "phone_code": "1-671"
  },
  {
    "id": 90,
    "name": "Guatemala",
    "iso3": "GTM",
    "iso2": "GT",
    "numeric_code": "320",
    "phone_code": "502"
  },
  {
    "id": 91,
    "name": "Guernsey and Alderney",
    "iso3": "GGY",
    "iso2": "GG",
    "numeric_code": "831",
    "phone_code": "44-1481"
  },
  {
    "id": 92,
    "name": "Guinea",
    "iso3": "GIN",
    "iso2": "GN",
    "numeric_code": "324",
    "phone_code": "224"
  },
  {
    "id": 93,
    "name": "Guinea-Bissau",
    "iso3": "GNB",
    "iso2": "GW",
    "numeric_code": "624",
    "phone_code": "245"
  },
  {
    "id": 94,
    "name": "Guyana",
    "iso3": "GUY",
    "iso2": "GY",
    "numeric_code": "328",
    "phone_code": "592"
  },
  {
    "id": 95,
    "name": "Haiti",
    "iso3": "HTI",
    "iso2": "HT",
    "numeric_code": "332",
    "phone_code": "509"
  },
  {
    "id": 96,
    "name": "Heard Island and McDonald Islands",
    "iso3": "HMD",
    "iso2": "HM",
    "numeric_code": "334",
    "phone_code": "672"
  },
  {
    "id": 97,
    "name": "Honduras",
    "iso3": "HND",
    "iso2": "HN",
    "numeric_code": "340",
    "phone_code": "504"
  },
  {
    "id": 98,
    "name": "Hong Kong S.A.R.",
    "iso3": "HKG",
    "iso2": "HK",
    "numeric_code": "344",
    "phone_code": "852"
  },
  {
    "id": 99,
    "name": "Hungary",
    "iso3": "HUN",
    "iso2": "HU",
    "numeric_code": "348",
    "phone_code": "36"
  },
  {
    "id": 100,
    "name": "Iceland",
    "iso3": "ISL",
    "iso2": "IS",
    "numeric_code": "352",
    "phone_code": "354"
  },
  {
    "id": 101,
    "name": "India",
    "iso3": "IND",
    "iso2": "IN",
    "numeric_code": "356",
    "phone_code": "91"
  },
  {
    "id": 102,
    "name": "Indonesia",
    "iso3": "IDN",
    "iso2": "ID",
    "numeric_code": "360",
    "phone_code": "62"
  },
  {
    "id": 103,
    "name": "Iran",
    "iso3": "IRN",
    "iso2": "IR",
    "numeric_code": "364",
    "phone_code": "98"
  },
  {
    "id": 104,
    "name": "Iraq",
    "iso3": "IRQ",
    "iso2": "IQ",
    "numeric_code": "368",
    "phone_code": "964"
  },
  {
    "id": 105,
    "name": "Ireland",
    "iso3": "IRL",
    "iso2": "IE",
    "numeric_code": "372",
    "phone_code": "353"
  },
  {
    "id": 106,
    "name": "Israel",
    "iso3": "ISR",
    "iso2": "IL",
    "numeric_code": "376",
    "phone_code": "972"
  },
  {
    "id": 107,
    "name": "Italy",
    "iso3": "ITA",
    "iso2": "IT",
    "numeric_code": "380",
    "phone_code": "39"
  },
  {
    "id": 108,
    "name": "Jamaica",
    "iso3": "JAM",
    "iso2": "JM",
    "numeric_code": "388",
    "phone_code": "1-876"
  },
  {
    "id": 109,
    "name": "Japan",
    "iso3": "JPN",
    "iso2": "JP",
    "numeric_code": "392",
    "phone_code": "81"
  },
  {
    "id": 110,
    "name": "Jersey",
    "iso3": "JEY",
    "iso2": "JE",
    "numeric_code": "832",
    "phone_code": "44-1534"
  },
  {
    "id": 111,
    "name": "Jordan",
    "iso3": "JOR",
    "iso2": "JO",
    "numeric_code": "400",
    "phone_code": "962"
  },
  {
    "id": 112,
    "name": "Kazakhstan",
    "iso3": "KAZ",
    "iso2": "KZ",
    "numeric_code": "398",
    "phone_code": "7"
  },
  {
    "id": 113,
    "name": "Kenya",
    "iso3": "KEN",
    "iso2": "KE",
    "numeric_code": "404",
    "phone_code": "254"
  },
  {
    "id": 114,
    "name": "Kiribati",
    "iso3": "KIR",
    "iso2": "KI",
    "numeric_code": "296",
    "phone_code": "686"
  },
  {
    "id": 118,
    "name": "Kyrgyzstan",
    "iso3": "KGZ",
    "iso2": "KG",
    "numeric_code": "417",
    "phone_code": "996"
  },
  {
    "id": 119,
    "name": "Laos",
    "iso3": "LAO",
    "iso2": "LA",
    "numeric_code": "418",
    "phone_code": "856"
  },
  {
    "id": 120,
    "name": "Latvia",
    "iso3": "LVA",
    "iso2": "LV",
    "numeric_code": "428",
    "phone_code": "371"
  },
  {
    "id": 121,
    "name": "Lebanon",
    "iso3": "LBN",
    "iso2": "LB",
    "numeric_code": "422",
    "phone_code": "961"
  },
  {
    "id": 122,
    "name": "Lesotho",
    "iso3": "LSO",
    "iso2": "LS",
    "numeric_code": "426",
    "phone_code": "266"
  },
  {
    "id": 123,
    "name": "Liberia",
    "iso3": "LBR",
    "iso2": "LR",
    "numeric_code": "430",
    "phone_code": "231"
  },
  {
    "id": 124,
    "name": "Libya",
    "iso3": "LBY",
    "iso2": "LY",
    "numeric_code": "434",
    "phone_code": "218"
  },
  {
    "id": 125,
    "name": "Liechtenstein",
    "iso3": "LIE",
    "iso2": "LI",
    "numeric_code": "438",
    "phone_code": "423"
  },
  {
    "id": 126,
    "name": "Lithuania",
    "iso3": "LTU",
    "iso2": "LT",
    "numeric_code": "440",
    "phone_code": "370"
  },
  {
    "id": 127,
    "name": "Luxembourg",
    "iso3": "LUX",
    "iso2": "LU",
    "numeric_code": "442",
    "phone_code": "352"
  },
  {
    "id": 128,
    "name": "Macau S.A.R.",
    "iso3": "MAC",
    "iso2": "MO",
    "numeric_code": "446",
    "phone_code": "853"
  },
  {
    "id": 130,
    "name": "Madagascar",
    "iso3": "MDG",
    "iso2": "MG",
    "numeric_code": "450",
    "phone_code": "261"
  },
  {
    "id": 131,
    "name": "Malawi",
    "iso3": "MWI",
    "iso2": "MW",
    "numeric_code": "454",
    "phone_code": "265"
  },
  {
    "id": 132,
    "name": "Malaysia",
    "iso3": "MYS",
    "iso2": "MY",
    "numeric_code": "458",
    "phone_code": "60"
  },
  {
    "id": 133,
    "name": "Maldives",
    "iso3": "MDV",
    "iso2": "MV",
    "numeric_code": "462",
    "phone_code": "960"
  },
  {
    "id": 134,
    "name": "Mali",
    "iso3": "MLI",
    "iso2": "ML",
    "numeric_code": "466",
    "phone_code": "223"
  },
  {
    "id": 135,
    "name": "Malta",
    "iso3": "MLT",
    "iso2": "MT",
    "numeric_code": "470",
    "phone_code": "356"
  },
  {
    "id": 136,
    "name": "Man (Isle of)",
    "iso3": "IMN",
    "iso2": "IM",
    "numeric_code": "833",
    "phone_code": "44-1624"
  },
  {
    "id": 137,
    "name": "Marshall Islands",
    "iso3": "MHL",
    "iso2": "MH",
    "numeric_code": "584",
    "phone_code": "692"
  },
  {
    "id": 138,
    "name": "Martinique",
    "iso3": "MTQ",
    "iso2": "MQ",
    "numeric_code": "474",
    "phone_code": "596"
  },
  {
    "id": 139,
    "name": "Mauritania",
    "iso3": "MRT",
    "iso2": "MR",
    "numeric_code": "478",
    "phone_code": "222"
  },
  {
    "id": 140,
    "name": "Mauritius",
    "iso3": "MUS",
    "iso2": "MU",
    "numeric_code": "480",
    "phone_code": "230"
  },
  {
    "id": 141,
    "name": "Mayotte",
    "iso3": "MYT",
    "iso2": "YT",
    "numeric_code": "175",
    "phone_code": "262"
  },
  {
    "id": 142,
    "name": "Mexico",
    "iso3": "MEX",
    "iso2": "MX",
    "numeric_code": "484",
    "phone_code": "52"
  },
  {
    "id": 143,
    "name": "Micronesia",
    "iso3": "FSM",
    "iso2": "FM",
    "numeric_code": "583",
    "phone_code": "691"
  },
  {
    "id": 144,
    "name": "Moldova",
    "iso3": "MDA",
    "iso2": "MD",
    "numeric_code": "498",
    "phone_code": "373"
  },
  {
    "id": 145,
    "name": "Monaco",
    "iso3": "MCO",
    "iso2": "MC",
    "numeric_code": "492",
    "phone_code": "377"
  },
  {
    "id": 146,
    "name": "Mongolia",
    "iso3": "MNG",
    "iso2": "MN",
    "numeric_code": "496",
    "phone_code": "976"
  },
  {
    "id": 147,
    "name": "Montenegro",
    "iso3": "MNE",
    "iso2": "ME",
    "numeric_code": "499",
    "phone_code": "382"
  },
  {
    "id": 148,
    "name": "Montserrat",
    "iso3": "MSR",
    "iso2": "MS",
    "numeric_code": "500",
    "phone_code": "1-664"
  },
  {
    "id": 149,
    "name": "Morocco",
    "iso3": "MAR",
    "iso2": "MA",
    "numeric_code": "504",
    "phone_code": "212"
  },
  {
    "id": 150,
    "name": "Mozambique",
    "iso3": "MOZ",
    "iso2": "MZ",
    "numeric_code": "508",
    "phone_code": "258"
  },
  {
    "id": 151,
    "name": "Myanmar",
    "iso3": "MMR",
    "iso2": "MM",
    "numeric_code": "104",
    "phone_code": "95"
  },
  {
    "id": 152,
    "name": "Namibia",
    "iso3": "NAM",
    "iso2": "NA",
    "numeric_code": "516",
    "phone_code": "264"
  },
  {
    "id": 153,
    "name": "Nauru",
    "iso3": "NRU",
    "iso2": "NR",
    "numeric_code": "520",
    "phone_code": "674"
  },
  {
    "id": 154,
    "name": "Nepal",
    "iso3": "NPL",
    "iso2": "NP",
    "numeric_code": "524",
    "phone_code": "977"
  },
  {
    "id": 156,
    "name": "Netherlands",
    "iso3": "NLD",
    "iso2": "NL",
    "numeric_code": "528",
    "phone_code": "31"
  },
  {
    "id": 157,
    "name": "New Caledonia",
    "iso3": "NCL",
    "iso2": "NC",
    "numeric_code": "540",
    "phone_code": "687"
  },
  {
    "id": 158,
    "name": "New Zealand",
    "iso3": "NZL",
    "iso2": "NZ",
    "numeric_code": "554",
    "phone_code": "64"
  },
  {
    "id": 159,
    "name": "Nicaragua",
    "iso3": "NIC",
    "iso2": "NI",
    "numeric_code": "558",
    "phone_code": "505"
  },
  {
    "id": 160,
    "name": "Niger",
    "iso3": "NER",
    "iso2": "NE",
    "numeric_code": "562",
    "phone_code": "227"
  },
  {
    "id": 161,
    "name": "Nigeria",
    "iso3": "NGA",
    "iso2": "NG",
    "numeric_code": "566",
    "phone_code": "234"
  },
  {
    "id": 162,
    "name": "Niue",
    "iso3": "NIU",
    "iso2": "NU",
    "numeric_code": "570",
    "phone_code": "683"
  },
  {
    "id": 163,
    "name": "Norfolk Island",
    "iso3": "NFK",
    "iso2": "NF",
    "numeric_code": "574",
    "phone_code": "672"
  },
  {
    "id": 115,
    "name": "North Korea",
    "iso3": "PRK",
    "iso2": "KP",
    "numeric_code": "408",
    "phone_code": "850"
  },
  {
    "id": 129,
    "name": "North Macedonia",
    "iso3": "MKD",
    "iso2": "MK",
    "numeric_code": "807",
    "phone_code": "389"
  },
  {
    "id": 164,
    "name": "Northern Mariana Islands",
    "iso3": "MNP",
    "iso2": "MP",
    "numeric_code": "580",
    "phone_code": "1-670"
  },
  {
    "id": 165,
    "name": "Norway",
    "iso3": "NOR",
    "iso2": "NO",
    "numeric_code": "578",
    "phone_code": "47"
  },
  {
    "id": 166,
    "name": "Oman",
    "iso3": "OMN",
    "iso2": "OM",
    "numeric_code": "512",
    "phone_code": "968"
  },
  {
    "id": 167,
    "name": "Pakistan",
    "iso3": "PAK",
    "iso2": "PK",
    "numeric_code": "586",
    "phone_code": "92"
  },
  {
    "id": 168,
    "name": "Palau",
    "iso3": "PLW",
    "iso2": "PW",
    "numeric_code": "585",
    "phone_code": "680"
  },
  {
    "id": 169,
    "name": "Palestinian Territory Occupied",
    "iso3": "PSE",
    "iso2": "PS",
    "numeric_code": "275",
    "phone_code": "970"
  },
  {
    "id": 170,
    "name": "Panama",
    "iso3": "PAN",
    "iso2": "PA",
    "numeric_code": "591",
    "phone_code": "507"
  },
  {
    "id": 171,
    "name": "Papua new Guinea",
    "iso3": "PNG",
    "iso2": "PG",
    "numeric_code": "598",
    "phone_code": "675"
  },
  {
    "id": 172,
    "name": "Paraguay",
    "iso3": "PRY",
    "iso2": "PY",
    "numeric_code": "600",
    "phone_code": "595"
  },
  {
    "id": 173,
    "name": "Peru",
    "iso3": "PER",
    "iso2": "PE",
    "numeric_code": "604",
    "phone_code": "51"
  },
  {
    "id": 174,
    "name": "Philippines",
    "iso3": "PHL",
    "iso2": "PH",
    "numeric_code": "608",
    "phone_code": "63"
  },
  {
    "id": 175,
    "name": "Pitcairn Island",
    "iso3": "PCN",
    "iso2": "PN",
    "numeric_code": "612",
    "phone_code": "870"
  },
  {
    "id": 176,
    "name": "Poland",
    "iso3": "POL",
    "iso2": "PL",
    "numeric_code": "616",
    "phone_code": "48"
  },
  {
    "id": 177,
    "name": "Portugal",
    "iso3": "PRT",
    "iso2": "PT",
    "numeric_code": "620",
    "phone_code": "351"
  },
  {
    "id": 178,
    "name": "Puerto Rico",
    "iso3": "PRI",
    "iso2": "PR",
    "numeric_code": "630",
    "phone_code": "1-787"
  },
    {
    "id": 178,
    "name": "Puerto Rico",
    "iso3": "PRI",
    "iso2": "PR",
    "numeric_code": "630",
    "phone_code": "1-939"
  },
  {
    "id": 179,
    "name": "Qatar",
    "iso3": "QAT",
    "iso2": "QA",
    "numeric_code": "634",
    "phone_code": "974"
  },
  {
    "id": 180,
    "name": "Reunion",
    "iso3": "REU",
    "iso2": "RE",
    "numeric_code": "638",
    "phone_code": "262"
  },
  {
    "id": 181,
    "name": "Romania",
    "iso3": "ROU",
    "iso2": "RO",
    "numeric_code": "642",
    "phone_code": "40"
  },
  {
    "id": 182,
    "name": "Russia",
    "iso3": "RUS",
    "iso2": "RU",
    "numeric_code": "643",
    "phone_code": "7"
  },
  {
    "id": 183,
    "name": "Rwanda",
    "iso3": "RWA",
    "iso2": "RW",
    "numeric_code": "646",
    "phone_code": "250"
  },
  {
    "id": 184,
    "name": "Saint Helena",
    "iso3": "SHN",
    "iso2": "SH",
    "numeric_code": "654",
    "phone_code": "290"
  },
  {
    "id": 185,
    "name": "Saint Kitts And Nevis",
    "iso3": "KNA",
    "iso2": "KN",
    "numeric_code": "659",
    "phone_code": "1-869"
  },
  {
    "id": 186,
    "name": "Saint Lucia",
    "iso3": "LCA",
    "iso2": "LC",
    "numeric_code": "662",
    "phone_code": "1-758"
  },
  {
    "id": 187,
    "name": "Saint Pierre and Miquelon",
    "iso3": "SPM",
    "iso2": "PM",
    "numeric_code": "666",
    "phone_code": "508"
  },
  {
    "id": 188,
    "name": "Saint Vincent And The Grenadines",
    "iso3": "VCT",
    "iso2": "VC",
    "numeric_code": "670",
    "phone_code": "1-784"
  },
  {
    "id": 189,
    "name": "Saint-Barthelemy",
    "iso3": "BLM",
    "iso2": "BL",
    "numeric_code": "652",
    "phone_code": "590"
  },
  {
    "id": 190,
    "name": "Saint-Martin (French part)",
    "iso3": "MAF",
    "iso2": "MF",
    "numeric_code": "663",
    "phone_code": "590"
  },
  {
    "id": 191,
    "name": "Samoa",
    "iso3": "WSM",
    "iso2": "WS",
    "numeric_code": "882",
    "phone_code": "685"
  },
  {
    "id": 192,
    "name": "San Marino",
    "iso3": "SMR",
    "iso2": "SM",
    "numeric_code": "674",
    "phone_code": "378"
  },
  {
    "id": 193,
    "name": "Sao Tome and Principe",
    "iso3": "STP",
    "iso2": "ST",
    "numeric_code": "678",
    "phone_code": "239"
  },
  {
    "id": 194,
    "name": "Saudi Arabia",
    "iso3": "SAU",
    "iso2": "SA",
    "numeric_code": "682",
    "phone_code": "966"
  },
  {
    "id": 195,
    "name": "Senegal",
    "iso3": "SEN",
    "iso2": "SN",
    "numeric_code": "686",
    "phone_code": "221"
  },
  {
    "id": 196,
    "name": "Serbia",
    "iso3": "SRB",
    "iso2": "RS",
    "numeric_code": "688",
    "phone_code": "381"
  },
  {
    "id": 197,
    "name": "Seychelles",
    "iso3": "SYC",
    "iso2": "SC",
    "numeric_code": "690",
    "phone_code": "248"
  },
  {
    "id": 198,
    "name": "Sierra Leone",
    "iso3": "SLE",
    "iso2": "SL",
    "numeric_code": "694",
    "phone_code": "232"
  },
  {
    "id": 199,
    "name": "Singapore",
    "iso3": "SGP",
    "iso2": "SG",
    "numeric_code": "702",
    "phone_code": "65"
  },
  {
    "id": 250,
    "name": "Sint Maarten (Dutch part)",
    "iso3": "SXM",
    "iso2": "SX",
    "numeric_code": "534",
    "phone_code": "1721"
  },
  {
    "id": 200,
    "name": "Slovakia",
    "iso3": "SVK",
    "iso2": "SK",
    "numeric_code": "703",
    "phone_code": "421"
  },
  {
    "id": 201,
    "name": "Slovenia",
    "iso3": "SVN",
    "iso2": "SI",
    "numeric_code": "705",
    "phone_code": "386"
  },
  {
    "id": 202,
    "name": "Solomon Islands",
    "iso3": "SLB",
    "iso2": "SB",
    "numeric_code": "090",
    "phone_code": "677"
  },
  {
    "id": 203,
    "name": "Somalia",
    "iso3": "SOM",
    "iso2": "SO",
    "numeric_code": "706",
    "phone_code": "252"
  },
  {
    "id": 204,
    "name": "South Africa",
    "iso3": "ZAF",
    "iso2": "ZA",
    "numeric_code": "710",
    "phone_code": "27"
  },
  {
    "id": 205,
    "name": "South Georgia",
    "iso3": "SGS",
    "iso2": "GS",
    "numeric_code": "239",
    "phone_code": "500"
  },
  {
    "id": 116,
    "name": "South Korea",
    "iso3": "KOR",
    "iso2": "KR",
    "numeric_code": "410",
    "phone_code": "82"
  },
  {
    "id": 206,
    "name": "South Sudan",
    "iso3": "SSD",
    "iso2": "SS",
    "numeric_code": "728",
    "phone_code": "211"
  },
  {
    "id": 207,
    "name": "Spain",
    "iso3": "ESP",
    "iso2": "ES",
    "numeric_code": "724",
    "phone_code": "34"
  },
  {
    "id": 208,
    "name": "Sri Lanka",
    "iso3": "LKA",
    "iso2": "LK",
    "numeric_code": "144",
    "phone_code": "94"
  },
  {
    "id": 209,
    "name": "Sudan",
    "iso3": "SDN",
    "iso2": "SD",
    "numeric_code": "729",
    "phone_code": "249"
  },
  {
    "id": 210,
    "name": "Suriname",
    "iso3": "SUR",
    "iso2": "SR",
    "numeric_code": "740",
    "phone_code": "597"
  },
  {
    "id": 211,
    "name": "Svalbard And Jan Mayen Islands",
    "iso3": "SJM",
    "iso2": "SJ",
    "numeric_code": "744",
    "phone_code": "47"
  },
  {
    "id": 212,
    "name": "Swaziland",
    "iso3": "SWZ",
    "iso2": "SZ",
    "numeric_code": "748",
    "phone_code": "268"
  },
  {
    "id": 213,
    "name": "Sweden",
    "iso3": "SWE",
    "iso2": "SE",
    "numeric_code": "752",
    "phone_code": "46"
  },
  {
    "id": 214,
    "name": "Switzerland",
    "iso3": "CHE",
    "iso2": "CH",
    "numeric_code": "756",
    "phone_code": "41"
  },
  {
    "id": 216,
    "name": "Taiwan",
    "iso3": "TWN",
    "iso2": "TW",
    "numeric_code": "158",
    "phone_code": "886"
  },
  {
    "id": 217,
    "name": "Tajikistan",
    "iso3": "TJK",
    "iso2": "TJ",
    "numeric_code": "762",
    "phone_code": "992"
  },
  {
    "id": 218,
    "name": "Tanzania",
    "iso3": "TZA",
    "iso2": "TZ",
    "numeric_code": "834",
    "phone_code": "255"
  },
  {
    "id": 219,
    "name": "Thailand",
    "iso3": "THA",
    "iso2": "TH",
    "numeric_code": "764",
    "phone_code": "66"
  },
  {
    "id": 17,
    "name": "The Bahamas",
    "iso3": "BHS",
    "iso2": "BS",
    "numeric_code": "044",
    "phone_code": "1-242"
  },
  {
    "id": 220,
    "name": "Togo",
    "iso3": "TGO",
    "iso2": "TG",
    "numeric_code": "768",
    "phone_code": "228"
  },
  {
    "id": 221,
    "name": "Tokelau",
    "iso3": "TKL",
    "iso2": "TK",
    "numeric_code": "772",
    "phone_code": "690"
  },
  {
    "id": 222,
    "name": "Tonga",
    "iso3": "TON",
    "iso2": "TO",
    "numeric_code": "776",
    "phone_code": "676"
  },
  {
    "id": 223,
    "name": "Trinidad And Tobago",
    "iso3": "TTO",
    "iso2": "TT",
    "numeric_code": "780",
    "phone_code": "1-868"
  },
  {
    "id": 224,
    "name": "Tunisia",
    "iso3": "TUN",
    "iso2": "TN",
    "numeric_code": "788",
    "phone_code": "216"
  },
  {
    "id": 225,
    "name": "Turkey",
    "iso3": "TUR",
    "iso2": "TR",
    "numeric_code": "792",
    "phone_code": "90"
  },
  {
    "id": 226,
    "name": "Turkmenistan",
    "iso3": "TKM",
    "iso2": "TM",
    "numeric_code": "795",
    "phone_code": "993"
  },
  {
    "id": 227,
    "name": "Turks And Caicos Islands",
    "iso3": "TCA",
    "iso2": "TC",
    "numeric_code": "796",
    "phone_code": "1-649"
  },
  {
    "id": 228,
    "name": "Tuvalu",
    "iso3": "TUV",
    "iso2": "TV",
    "numeric_code": "798",
    "phone_code": "688"
  },
  {
    "id": 229,
    "name": "Uganda",
    "iso3": "UGA",
    "iso2": "UG",
    "numeric_code": "800",
    "phone_code": "256"
  },
  {
    "id": 230,
    "name": "Ukraine",
    "iso3": "UKR",
    "iso2": "UA",
    "numeric_code": "804",
    "phone_code": "380"
  },
  {
    "id": 231,
    "name": "United Arab Emirates",
    "iso3": "ARE",
    "iso2": "AE",
    "numeric_code": "784",
    "phone_code": "971"
  },
  {
    "id": 232,
    "name": "United Kingdom",
    "iso3": "GBR",
    "iso2": "GB",
    "numeric_code": "826",
    "phone_code": "44"
  },
  {
    "id": 233,
    "name": "United States",
    "iso3": "USA",
    "iso2": "US",
    "numeric_code": "840",
    "phone_code": "1"
  },
  {
    "id": 234,
    "name": "United States Minor Outlying Islands",
    "iso3": "UMI",
    "iso2": "UM",
    "numeric_code": "581",
    "phone_code": "1"
  },
  {
    "id": 235,
    "name": "Uruguay",
    "iso3": "URY",
    "iso2": "UY",
    "numeric_code": "858",
    "phone_code": "598"
  },
  {
    "id": 236,
    "name": "Uzbekistan",
    "iso3": "UZB",
    "iso2": "UZ",
    "numeric_code": "860",
    "phone_code": "998"
  },
  {
    "id": 237,
    "name": "Vanuatu",
    "iso3": "VUT",
    "iso2": "VU",
    "numeric_code": "548",
    "phone_code": "678"
  },
  {
    "id": 238,
    "name": "Vatican City State (Holy See)",
    "iso3": "VAT",
    "iso2": "VA",
    "numeric_code": "336",
    "phone_code": "379"
  },
  {
    "id": 239,
    "name": "Venezuela",
    "iso3": "VEN",
    "iso2": "VE",
    "numeric_code": "862",
    "phone_code": "58"
  },
  {
    "id": 240,
    "name": "Vietnam",
    "iso3": "VNM",
    "iso2": "VN",
    "numeric_code": "704",
    "phone_code": "84"
  },
  {
    "id": 241,
    "name": "Virgin Islands (British)",
    "iso3": "VGB",
    "iso2": "VG",
    "numeric_code": "092",
    "phone_code": "1-284"
  },
  {
    "id": 242,
    "name": "Virgin Islands (US)",
    "iso3": "VIR",
    "iso2": "VI",
    "numeric_code": "850",
    "phone_code": "1-340"
  },
  {
    "id": 243,
    "name": "Wallis And Futuna Islands",
    "iso3": "WLF",
    "iso2": "WF",
    "numeric_code": "876",
    "phone_code": "681"
  },
  {
    "id": 244,
    "name": "Western Sahara",
    "iso3": "ESH",
    "iso2": "EH",
    "numeric_code": "732",
    "phone_code": "212"
  },
  {
    "id": 245,
    "name": "Yemen",
    "iso3": "YEM",
    "iso2": "YE",
    "numeric_code": "887",
    "phone_code": "967"
  },
  {
    "id": 246,
    "name": "Zambia",
    "iso3": "ZMB",
    "iso2": "ZM",
    "numeric_code": "894",
    "phone_code": "260"
  },
  {
    "id": 247,
    "name": "Zimbabwe",
    "iso3": "ZWE",
    "iso2": "ZW",
    "numeric_code": "716",
    "phone_code": "263"
  }
]